NORAD_CAT_ID,OBJECT_NAME,OBJECT_TYPE,EPOCH,MEAN_MOTION,ECCENTRICITY,INCLINATION,RA_OF_ASC_NODE,ARG_OF_PERICENTER,MEAN_ANOMALY,BSTAR,MEAN_MOTION_DOT,MEAN_MOTION_DDOT,TLE_LINE0,TLE_LINE1,TLE_LINE2,SEMIMAJOR_AXIS,PERIOD,APOGEE,PERIGEE,DECAYED
56802.0,STARLINK-6070,PAYLOAD,2023-10-13 10:41:19,15.69948382,0.0002643,69.9989,33.2508,270.5074,89.5819,-2.6271e-05,-3.373e-05,0.0,0 STARLINK-6070,1 56802U 23078AM  23286.44536224 -.00003373  00000-0 -26271-4 0  9992,2 56802  69.9989  33.2508 0002643 270.5074  89.5819 15.69948382 21529,6737.182,91.723,360.827,357.266,0.0
56802.0,STARLINK-6070,PAYLOAD,2023-10-13 13:44:49,15.69933038,0.0002811,69.9983,32.8926,264.0442,96.0433,1.1778e-05,1.204e-05,0.0,0 STARLINK-6070,1 56802U 23078AM  23286.57279446  .00001204  00000-0  11778-4 0  9991,2 56802  69.9983  32.8926 0002811 264.0442  96.0433 15.69933038 21286,6737.226,91.724,360.984,357.197,0.0
56802.0,STARLINK-6070,PAYLOAD,2023-10-13 16:48:19,15.6994145,0.0002907,69.997,32.5328,269.5766,90.5097,-1.2071e-05,-1.665e-05,0.0,0 STARLINK-6070,1 56802U 23078AM  23286.70022698 -.00001665  00000-0 -12071-4 0  9991,2 56802  69.9970  32.5328 0002907 269.5766  90.5097 15.69941450 21305,6737.202,91.723,361.025,357.108,0.0
56802.0,STARLINK-6070,PAYLOAD,2023-10-14 09:37:37,15.69915179,0.000352,69.9972,30.5628,266.6161,93.4632,1.1296e-06,-7.7e-07,0.0,0 STARLINK-6070,1 56802U 23078AM  23287.40112459 -.00000077  00000-0  11296-5 0  9998,2 56802  69.9972  30.5628 0003520 266.6161  93.4632 15.69915179 21673,6737.277,91.725,361.513,356.77,0.0
56802.0,STARLINK-6070,PAYLOAD,2023-10-14 15:44:38,15.6991038,0.0003771,69.9976,29.8462,273.4444,86.632,-7.6292e-06,-1.13e-05,0.0,0 STARLINK-6070,1 56802U 23078AM  23287.65599805 -.00001130  00000-0 -76292-5 0  9998,2 56802  69.9976  29.8462 0003771 273.4444  86.6320 15.69910380 21714,6737.29,91.725,361.696,356.615,0.0
56802.0,STARLINK-6070,PAYLOAD,2023-10-15 10:05:38,15.69929535,0.0003659,69.9972,27.6962,264.7061,95.3718,1.2659e-06,-6.1e-07,0.0,0 STARLINK-6070,1 56802U 23078AM  23288.42058456 -.00000061  00000-0  12659-5 0  9994,2 56802  69.9972  27.6962 0003659 264.7061  95.3718 15.69929535 21837,6737.236,91.724,361.566,356.635,0.0
56802.0,STARLINK-6070,PAYLOAD,2023-10-15 13:09:08,15.69939388,0.0003646,69.9972,27.3378,267.1458,92.9321,-1.0791e-05,-1.511e-05,0.0,0 STARLINK-6070,1 56802U 23078AM  23288.54801547 -.00001511  00000-0 -10791-4 0  9990,2 56802  69.9972  27.3378 0003646 267.1458  92.9321 15.69939388 21591,6737.207,91.723,361.529,356.616,0.0
56802.0,STARLINK-6070,PAYLOAD,2023-10-15 16:12:38,15.69933063,0.000354,69.9972,26.9789,270.5201,89.5589,6.8921e-06,6.16e-06,0.0,0 STARLINK-6070,1 56802U 23078AM  23288.67544741  .00000616  00000-0  68921-5 0  9996,2 56802  69.9972  26.9789 0003540 270.5201  89.5589 15.69933063 21614,6737.226,91.724,361.475,356.706,0.0
56802.0,STARLINK-6070,PAYLOAD,2023-10-16 07:30:10,15.69909796,0.0003306,69.9976,25.1891,268.9366,91.1451,1.5778e-05,1.684e-05,0.0,0 STARLINK-6070,1 56802U 23078AM  23289.31262632  .00001684  00000-0  15778-4 0  9991,2 56802  69.9976  25.1891 0003306 268.9366  91.1451 15.69909796 21978,6737.292,91.725,361.384,356.93,0.0
56802.0,STARLINK-6070,PAYLOAD,2023-10-16 09:01:55,15.69913065,0.0003146,69.9987,25.0098,267.5083,92.5753,1.8357e-05,1.994e-05,0.0,0 STARLINK-6070,1 56802U 23078AM  23289.37634091  .00001994  00000-0  18357-4 0  9999,2 56802  69.9987  25.0098 0003146 267.5083  92.5753 15.69913065 21728,6737.283,91.725,361.267,357.028,0.0
56802.0,STARLINK-6070,PAYLOAD,2023-10-16 16:40:41,15.69913932,0.000304,69.9989,24.1136,265.3514,94.7335,2.222e-05,2.459e-05,0.0,0 STARLINK-6070,1 56802U 23078AM  23289.69492462  .00002459  00000-0  22220-4 0  9999,2 56802  69.9989  24.1136 0003040 265.3514  94.7335 15.69913932 21779,6737.28,91.725,361.193,357.097,0.0
56802.0,STARLINK-6070,PAYLOAD,2023-10-17 09:29:58,15.69917184,0.0002938,69.9989,22.1419,266.8471,93.2388,4.1247e-06,2.83e-06,0.0,0 STARLINK-6070,1 56802U 23078AM  23290.39581066  .00000283  00000-0  41247-5 0  9991,2 56802  69.9989  22.1419 0002938 266.8471  93.2388 15.69917184 22141,6737.271,91.725,361.115,357.157,0.0
56802.0,STARLINK-6070,PAYLOAD,2023-10-17 12:33:28,15.69917875,0.0003251,69.9988,21.7833,267.6861,92.3962,1.0008e-05,9.91e-06,0.0,0 STARLINK-6070,1 56802U 23078AM  23290.52324181  .00000991  00000-0  10008-4 0  9995,2 56802  69.9988  21.7833 0003251 267.6861  92.3962 15.69917875 21904,6737.269,91.725,361.324,356.944,0.0
56802.0,STARLINK-6070,PAYLOAD,2023-10-17 23:15:43,15.69923982,0.0003179,69.9975,20.5298,267.3427,92.7404,3.299e-06,1.84e-06,0.0,0 STARLINK-6070,1 56802U 23078AM  23290.96925646  .00000184  00000-0  32990-5 0  9995,2 56802  69.9975  20.5298 0003179 267.3427  92.7404 15.69923982 22234,6737.251,91.724,361.258,356.975,0.0
56802.0,STARLINK-6070,PAYLOAD,2023-10-19 08:54:16,15.69916256,0.0003255,69.9969,16.5887,274.0358,86.0466,-6.1504e-06,-9.52e-06,0.0,0 STARLINK-6070,1 56802U 23078AM  23292.37102834 -.00000952  00000-0 -61504-5 0  9996,2 56802  69.9969  16.5887 0003255 274.0358  86.0466 15.69916256 22453,6737.274,91.725,361.332,356.946,0.0
56802.0,STARLINK-6070,PAYLOAD,2023-10-20 09:22:19,15.69915422,0.0002726,69.9975,13.7216,270.4432,89.6451,-1.2434e-05,-1.706e-05,0.0,0 STARLINK-6070,1 56802U 23078AM  23293.39050157 -.00001706  00000-0 -12434-4 0  9994,2 56802  69.9975  13.7216 0002726 270.4432  89.6451 15.69915422 22615,6737.276,91.725,360.978,357.304,0.0
56802.0,STARLINK-6070,PAYLOAD,2023-10-21 11:22:05,15.69929774,0.0002443,69.998,10.6756,271.4487,88.6429,-8.5014e-07,-3.14e-06,0.0,0 STARLINK-6070,1 56802U 23078AM  23294.47367165 -.00000314  00000-0 -85014-6 0  9994,2 56802  69.9980  10.6756 0002443 271.4487  88.6429 15.69929774 22780,6737.235,91.724,360.746,357.454,0.0
56802.0,STARLINK-6070,PAYLOAD,2023-10-21 22:04:21,15.69916,0.0003026,69.997,9.4216,274.9105,85.1745,1.3423e-05,1.401e-05,0.0,0 STARLINK-6070,1 56802U 23078AM  23294.91969472  .00001401  00000-0  13423-4 0  9991,2 56802  69.9970   9.4216 0003026 274.9105  85.1745 15.69916000 22599,6737.274,91.725,361.178,357.101,0.0
56802.0,STARLINK-6070,PAYLOAD,2023-10-22 13:21:54,15.69906526,0.0002476,69.9982,7.6302,264.4286,95.6627,6.5893e-06,5.79e-06,0.0,0 STARLINK-6070,1 56802U 23078AM  23295.55687552  .00000579  00000-0  65893-5 0  9992,2 56802  69.9982   7.6302 0002476 264.4286  95.6627 15.69906526 22698,6737.301,91.725,360.835,357.498,0.0
56802.0,STARLINK-6070,PAYLOAD,2023-10-22 14:53:38,15.69909346,0.0002191,69.9993,7.4519,256.9622,103.1329,1.3417e-05,1.4e-05,0.0,0 STARLINK-6070,1 56802U 23078AM  23295.62058967  .00001400  00000-0  13417-4 0  9990,2 56802  69.9993   7.4519 0002191 256.9622 103.1329 15.69909346 22969,6737.293,91.725,360.634,357.682,0.0
56802.0,STARLINK-6070,PAYLOAD,2023-10-22 22:32:23,15.69934469,0.0002493,69.9976,6.5547,261.6802,98.4111,4.9438e-06,3.82e-06,0.0,0 STARLINK-6070,1 56802U 23078AM  23295.93915812  .00000382  00000-0  49438-5 0  9996,2 56802  69.9976   6.5547 0002493 261.6802  98.4111 15.69934469 22755,6737.221,91.724,360.766,357.407,0.0
56802.0,STARLINK-6070,PAYLOAD,2023-10-23 12:18:10,15.69920111,0.0002711,69.998,4.9427,265.6177,94.4709,-1.4734e-05,-1.983e-05,0.0,0 STARLINK-6070,1 56802U 23078AM  23296.51261928 -.00001983  00000-0 -14734-4 0  9993,2 56802  69.9980   4.9427 0002711 265.6177  94.4709 15.69920111 23109,6737.263,91.724,360.954,357.301,0.0
56802.0,STARLINK-6070,PAYLOAD,2023-10-24 11:14:26,15.69920587,0.0002331,69.9991,2.2552,265.6016,94.4914,1.7453e-05,1.886e-05,0.0,0 STARLINK-6070,1 56802U 23078AM  23297.46836390  .00001886  00000-0  17453-4 0  9990,2 56802  69.9991   2.2552 0002331 265.6016  94.4914 15.69920587 23252,6737.261,91.724,360.697,357.556,0.0
56802.0,STARLINK-6070,PAYLOAD,2023-10-24 14:17:57,15.69908954,0.0002743,69.9989,1.8983,268.1857,91.9025,1.3124e-05,1.365e-05,0.0,0 STARLINK-6070,1 56802U 23078AM  23297.59580655  .00001365  00000-0  13124-4 0  9997,2 56802  69.9989   1.8983 0002743 268.1857  91.9025 15.69908954 23013,6737.294,91.725,361.008,357.311,0.0
56802.0,STARLINK-6070,PAYLOAD,2023-10-25 13:14:14,15.69911653,0.0002777,69.9975,359.2104,261.6613,98.4267,1.1005e-05,1.11e-05,0.0,0 STARLINK-6070,1 56802U 23078AM  23298.55155500  .00001110  00000-0  11005-4 0  9995,2 56802  69.9975 359.2104 0002777 261.6613  98.4267 15.69911653 23423,6737.287,91.725,361.023,357.281,0.0
56802.0,STARLINK-6070,PAYLOAD,2023-10-26 07:35:15,15.69918947,0.0002252,69.999,357.0611,232.9401,127.1589,-1.2282e-05,-1.688e-05,0.0,0 STARLINK-6070,1 56802U 23078AM  23299.31615421 -.00001688  00000-0 -12282-4 0  9993,2 56802  69.9990 357.0611 0002252 232.9401 127.1589 15.69918947 23546,6737.266,91.724,360.648,357.614,0.0
56802.0,STARLINK-6070,PAYLOAD,2023-10-26 13:42:15,15.69937197,0.0002147,69.9984,356.3454,242.6681,117.4296,-3.0046e-05,-3.824e-05,0.0,0 STARLINK-6070,1 56802U 23078AM  23299.57101449 -.00003824  00000-0 -30046-4 0  9993,2 56802  69.9984 356.3454 0002147 242.6681 117.4296 15.69937197 23328,6737.214,91.723,360.525,357.632,0.0
56802.0,STARLINK-6070,PAYLOAD,2023-10-27 06:31:33,15.69897738,0.0004029,69.9965,354.3732,285.0574,75.0175,-1.6434e-05,-2.187e-05,0.0,0 STARLINK-6070,1 56802U 23078AM  23300.27191875 -.00002187  00000-0 -16434-4 0  9991,2 56802  69.9965 354.3732 0004029 285.0574  75.0175 15.69897738 23698,6737.327,91.726,361.906,356.477,0.0
56802.0,STARLINK-6070,PAYLOAD,2023-10-28 10:03:04,15.69920134,0.0003122,69.9973,351.15,265.73,94.3539,4.9754e-06,3.86e-06,0.0,0 STARLINK-6070,1 56802U 23078AM  23301.41880288  .00000386  00000-0  49754-5 0  9990,2 56802  69.9973 351.1500 0003122 265.7300  94.3539 15.69920134 23875,6737.262,91.724,361.231,357.024,0.0
56802.0,STARLINK-6070,PAYLOAD,2023-10-28 13:06:34,15.69919616,0.0003055,69.9969,350.7912,263.7369,96.3479,4.8777e-06,3.74e-06,0.0,0 STARLINK-6070,1 56802U 23078AM  23301.54623690  .00000374  00000-0  48777-5 0  9997,2 56802  69.9969 350.7912 0003055 263.7369  96.3479 15.69919616 23632,6737.264,91.724,361.187,357.071,0.0
